<?xml version="1.0" encoding="UTF-8"?>
<gpx version="1.1" creator="sample" xmlns="http://www.topografix.com/GPX/1/1">
  <metadata><name>Kinder Scout loop</name></metadata>
  <trk>
    <name>Kinder Scout loop</name>
    <trkseg>
      <trkpt lat="53.385000" lon="-1.860000"><ele>450.0</ele><time>2026-08-16T09:30:00Z</time></trkpt>
      <trkpt lat="53.385732" lon="-1.860055"><ele>461.9</ele><time>2026-08-16T09:33:00Z</time></trkpt>
      <trkpt lat="53.386455" lon="-1.860219"><ele>472.7</ele><time>2026-08-16T09:36:00Z</time></trkpt>
      <trkpt lat="53.387163" lon="-1.860489"><ele>481.8</ele><time>2026-08-16T09:39:00Z</time></trkpt>
      <trkpt lat="53.387847" lon="-1.860865"><ele>489.3</ele><time>2026-08-16T09:42:00Z</time></trkpt>
      <trkpt lat="53.388500" lon="-1.861340"><ele>495.8</ele><time>2026-08-16T09:45:00Z</time></trkpt>
      <trkpt lat="53.389114" lon="-1.861910"><ele>502.6</ele><time>2026-08-16T09:48:00Z</time></trkpt>
      <trkpt lat="53.389684" lon="-1.862569"><ele>510.5</ele><time>2026-08-16T09:51:00Z</time></trkpt>
      <trkpt lat="53.390202" lon="-1.863309"><ele>520.0</ele><time>2026-08-16T09:54:00Z</time></trkpt>
      <trkpt lat="53.390663" lon="-1.864122"><ele>530.6</ele><time>2026-08-16T09:56:59Z</time></trkpt>
      <trkpt lat="53.391062" lon="-1.865000"><ele>541.5</ele><time>2026-08-16T10:00:00Z</time></trkpt>
      <trkpt lat="53.391395" lon="-1.865933"><ele>551.5</ele><time>2026-08-16T10:02:59Z</time></trkpt>
      <trkpt lat="53.391657" lon="-1.866910"><ele>559.8</ele><time>2026-08-16T10:06:00Z</time></trkpt>
      <trkpt lat="53.391847" lon="-1.867921"><ele>566.0</ele><time>2026-08-16T10:09:00Z</time></trkpt>
      <trkpt lat="53.391962" lon="-1.868955"><ele>570.8</ele><time>2026-08-16T10:12:00Z</time></trkpt>
      <trkpt lat="53.392000" lon="-1.870000"><ele>575.1</ele><time>2026-08-16T10:15:00Z</time></trkpt>
      <trkpt lat="53.391962" lon="-1.871045"><ele>580.0</ele><time>2026-08-16T10:18:00Z</time></trkpt>
      <trkpt lat="53.391847" lon="-1.872079"><ele>586.1</ele><time>2026-08-16T10:21:00Z</time></trkpt>
      <trkpt lat="53.391657" lon="-1.873090"><ele>593.5</ele><time>2026-08-16T10:23:59Z</time></trkpt>
      <trkpt lat="53.391395" lon="-1.874067"><ele>601.4</ele><time>2026-08-16T10:27:00Z</time></trkpt>
      <trkpt lat="53.391062" lon="-1.875000"><ele>608.7</ele><time>2026-08-16T10:30:00Z</time></trkpt>
      <trkpt lat="53.390663" lon="-1.875878"><ele>614.3</ele><time>2026-08-16T10:32:59Z</time></trkpt>
      <trkpt lat="53.390202" lon="-1.876691"><ele>617.9</ele><time>2026-08-16T10:35:59Z</time></trkpt>
      <trkpt lat="53.389684" lon="-1.877431"><ele>619.5</ele><time>2026-08-16T10:39:00Z</time></trkpt>
      <trkpt lat="53.389114" lon="-1.878090"><ele>620.0</ele><time>2026-08-16T10:42:00Z</time></trkpt>
      <trkpt lat="53.388500" lon="-1.878660"><ele>620.6</ele><time>2026-08-16T10:45:00Z</time></trkpt>
      <trkpt lat="53.387847" lon="-1.879135"><ele>622.1</ele><time>2026-08-16T10:48:00Z</time></trkpt>
      <trkpt lat="53.387163" lon="-1.879511"><ele>624.8</ele><time>2026-08-16T10:51:00Z</time></trkpt>
      <trkpt lat="53.386455" lon="-1.879781"><ele>628.3</ele><time>2026-08-16T10:54:00Z</time></trkpt>
      <trkpt lat="53.385732" lon="-1.879945"><ele>631.6</ele><time>2026-08-16T10:57:00Z</time></trkpt>
      <trkpt lat="53.385000" lon="-1.880000"><ele>633.7</ele><time>2026-08-16T11:00:00Z</time></trkpt>
      <trkpt lat="53.384268" lon="-1.879945"><ele>633.6</ele><time>2026-08-16T11:03:00Z</time></trkpt>
      <trkpt lat="53.383545" lon="-1.879781"><ele>631.5</ele><time>2026-08-16T11:06:00Z</time></trkpt>
      <trkpt lat="53.382837" lon="-1.879511"><ele>627.7</ele><time>2026-08-16T11:09:00Z</time></trkpt>
      <trkpt lat="53.382153" lon="-1.879135"><ele>623.6</ele><time>2026-08-16T11:12:00Z</time></trkpt>
      <trkpt lat="53.381500" lon="-1.878660"><ele>620.0</ele><time>2026-08-16T11:15:00Z</time></trkpt>
      <trkpt lat="53.380886" lon="-1.878090"><ele>617.6</ele><time>2026-08-16T11:17:59Z</time></trkpt>
      <trkpt lat="53.380316" lon="-1.877431"><ele>616.2</ele><time>2026-08-16T11:21:00Z</time></trkpt>
      <trkpt lat="53.379798" lon="-1.876691"><ele>615.2</ele><time>2026-08-16T11:24:00Z</time></trkpt>
      <trkpt lat="53.379337" lon="-1.875878"><ele>613.4</ele><time>2026-08-16T11:27:00Z</time></trkpt>
      <trkpt lat="53.378938" lon="-1.875000"><ele>609.9</ele><time>2026-08-16T11:30:00Z</time></trkpt>
      <trkpt lat="53.378605" lon="-1.874067"><ele>604.2</ele><time>2026-08-16T11:32:59Z</time></trkpt>
      <trkpt lat="53.378343" lon="-1.873090"><ele>596.7</ele><time>2026-08-16T11:35:59Z</time></trkpt>
      <trkpt lat="53.378153" lon="-1.872079"><ele>588.4</ele><time>2026-08-16T11:39:00Z</time></trkpt>
      <trkpt lat="53.378038" lon="-1.871045"><ele>580.3</ele><time>2026-08-16T11:41:59Z</time></trkpt>
      <trkpt lat="53.378000" lon="-1.870000"><ele>573.3</ele><time>2026-08-16T11:45:00Z</time></trkpt>
      <trkpt lat="53.378038" lon="-1.868955"><ele>567.7</ele><time>2026-08-16T11:48:00Z</time></trkpt>
      <trkpt lat="53.378153" lon="-1.867921"><ele>562.9</ele><time>2026-08-16T11:51:00Z</time></trkpt>
      <trkpt lat="53.378343" lon="-1.866910"><ele>558.0</ele><time>2026-08-16T11:54:00Z</time></trkpt>
      <trkpt lat="53.378605" lon="-1.865933"><ele>551.8</ele><time>2026-08-16T11:57:00Z</time></trkpt>
      <trkpt lat="53.378938" lon="-1.865000"><ele>543.8</ele><time>2026-08-16T12:00:00Z</time></trkpt>
      <trkpt lat="53.379337" lon="-1.864122"><ele>533.8</ele><time>2026-08-16T12:03:00Z</time></trkpt>
      <trkpt lat="53.379798" lon="-1.863309"><ele>522.8</ele><time>2026-08-16T12:06:00Z</time></trkpt>
      <trkpt lat="53.380316" lon="-1.862569"><ele>511.7</ele><time>2026-08-16T12:09:00Z</time></trkpt>
      <trkpt lat="53.380886" lon="-1.861910"><ele>501.7</ele><time>2026-08-16T12:12:00Z</time></trkpt>
      <trkpt lat="53.381500" lon="-1.861340"><ele>493.2</ele><time>2026-08-16T12:15:00Z</time></trkpt>
      <trkpt lat="53.382153" lon="-1.860865"><ele>486.0</ele><time>2026-08-16T12:18:00Z</time></trkpt>
      <trkpt lat="53.382837" lon="-1.860489"><ele>479.3</ele><time>2026-08-16T12:20:59Z</time></trkpt>
      <trkpt lat="53.383545" lon="-1.860219"><ele>472.1</ele><time>2026-08-16T12:24:00Z</time></trkpt>
      <trkpt lat="53.384268" lon="-1.860055"><ele>463.4</ele><time>2026-08-16T12:26:59Z</time></trkpt>
      <trkpt lat="53.385000" lon="-1.860000"><ele>453.0</ele><time>2026-08-16T12:30:00Z</time></trkpt>
    </trkseg>
  </trk>
</gpx>
